NUSAT-1 (FRESCO)        
1 41557U 16033B   22365.93156058  .00024435  00000+0  58714-3 0  9995
2 41557  97.3884 104.7754 0010295  32.9245 106.1946 15.41274615367721
BEESAT-4                
1 41619U 16040W   22365.62475601  .00029425  00000+0  77813-3 0  9991
2 41619  97.1907  51.5078 0009018 122.1893 238.0228 15.38321229350959
CAS-2T & KS-1Q          
1 41847U 16066G   22365.70880922  .00000947  00000+0  15175-3 0  9998
2 41847  98.5281  69.9612 0361922 339.7325  18.9799 14.38986555322719
NAYIF-1 (EO-88)         
1 42017U 17008BX  22365.15579474  .00042911  00000+0  95709-3 0  9999
2 42017  97.2443  69.1444 0002659 255.8233 104.2720 15.43445347327315
ZHUHAI-1 02 (CAS-4B)    
1 42759U 17034B   22365.88121426  .00006760  00000+0  38030-3 0  9997
2 42759  43.0186 323.2002 0008833  99.5489 357.3548 15.13741754306258
ZHUHAI-1 01 (CAS-4A)    
1 42761U 17034D   22365.83783272  .00006586  00000+0  36980-3 0  9996
2 42761  43.0182 322.0766 0009219  98.5877 349.5699 15.13841739306254
MAX VALIER SAT          
1 42778U 17036P   22365.67961585  .00016248  00000+0  54289-3 0  9991
2 42778  97.1823  40.1886 0009557 354.2935   5.8196 15.31046448307032
RADFXSAT (FOX-1B)       
1 43017U 17073E   22365.64025599  .00008038  00000+0  59209-3 0  9997
2 43017  97.6525 251.6924 0241218 261.2159  96.1672 14.83176136276325
FOX-1D (AO-92)          
1 43137U 18004AC  22365.75022520  .00019396  00000+0  58467-3 0  9992
2 43137  97.3505  79.4984 0007682  30.7739 329.3953 15.34325685276531
DIWATA-2B               
1 43678U 18084H   22365.84329640  .00001111  00000+0  11369-3 0  9999
2 43678  97.9959 141.8201 0009918   2.8860 357.2393 14.92595278227292
ES'HAIL 2               
1 43700U 18090A   22365.80079126  .00000152  00000+0  00000+0 0  9999
2 43700   0.0233  22.5127 0001724 289.0510 102.6934  1.00270426 15005
FOX-1CLIFF (AO-95)      
1 43770U 18099N   22365.44947661  .00004667  00000+0  40383-3 0  9990
2 43770  97.5977  66.5543 0012926 340.4165  19.6560 14.97574649222480
ITASAT 1                
1 43786U 18099AE  22365.76630986  .00003473  00000+0  30180-3 0  9999
2 43786  97.6007  67.8752 0014038 329.7920  30.2492 14.97569049222574
JY1SAT (JO-97)          
1 43803U 18099AX  22365.70416183  .00004686  00000+0  39756-3 0  9999
2 43803  97.5965  67.6552 0013728 327.3671  32.6702 14.98328550222597
UWE-4                   
1 43880U 18111E   22365.69036121  .00006455  00000+0  52907-3 0  9996
2 43880  97.6594 268.5533 0013118  31.9886 328.2131 14.99534566219246
NEXUS (FO-99)           
1 43937U 19003F   22365.59104161  .00023246  00000+0  64412-3 0  9990
2 43937  97.1112  31.7455 0018146 160.3783 199.8164 15.36791493220181
PSAT2 (NO-104)          
1 44354U 19036R   22365.79197216  .00227765  89480-5  83687-3 0  9997
2 44354  28.5165 221.6953 0116177  80.9538 280.4198 15.76896578195406
JAISAT-1                
1 44419U 19038F   22365.66519595  .00014843  00000+0  66274-3 0  9994
2 44419  97.6598 338.1431 0017930 162.0136 198.1737 15.21320754192996
DUCHIFAT-3              
1 44854U 19089C   22365.73851174  .00005559  00000+0  41302-3 0  9992
2 44854  36.9664   9.4603 0006752  19.2627 149.6897 15.02786692167600
CAS-6 (TIANQIN 1)       
1 44881U 19093C   22365.88536397  .00000815  00000+0  10922-3 0  9994
2 44881  97.8783  82.1278 0013489 263.4009  96.5657 14.82001785164012
RS-44 & BREEZE-KM R/B   
1 44909U 19096E   22365.67865788  .00000002  00000+0 -31605-4 0  9995
2 44909  82.5217  99.2571 0216984 218.3658 140.1841 12.79717385140733
ORBITAL FACTORY 2 (OF-2)
1 45113U 19071C   22365.62619725  .00087922  00000+0  97016-3 0  9991
2 45113  51.6317 159.8527 0009136 193.9089 166.1655 15.62286609163997
HUSKYSAT-1 (HO-107)     
1 45119U 19071J   22365.73890200  .00069564  00000+0  89018-3 0  9993
2 45119  51.6321 162.0708 0009186 186.3066 173.7813 15.58514477163960
BY70-2                  
1 45857U 20042B   22365.89761110  .00010887  00000+0  13454-2 0  9990
2 45857  97.9415  81.0896 0010010 188.5838 171.5281 14.82939442134684
SALSAT                  
1 46495U 20068K   22365.56647809  .00004154  00000+0  29175-3 0  9997
2 46495  97.7522 307.2679 0015353 336.1769  23.8745 15.05605034123833
BY70-3                  
1 46839U 20079N   22365.89758029  .00062376  00000+0  90748-3 0  9998
2 46839  97.1758  76.6387 0004083 350.5831 122.4269 15.55547896120774
RADFXSAT-2 (AO-109)     
1 47311U 21002C   22365.49079846  .00016900  00000+0  58294-3 0  9992
2 47311  60.6845 338.5195 0038880  91.0218 269.5327 15.29447699108558
UVSQ-SAT                
1 47438U 21006AB  22365.71791877  .00011350  00000+0  55238-3 0  9995
2 47438  97.4123  60.7142 0010095 315.1549  44.8868 15.18501021107186
DIY-1 (ARDUIQUBE)       
1 47963U 21022AH  22365.70719474  .00037454  00000+0  16174-2 0  9996
2 47963  97.5167 265.5825 0013789 159.9462 200.2319 15.22316839 96858
XW-3 (CAS-9)            
1 50466U 21131B   22365.77753649  .00000367  00000+0  13439-3 0  9993
2 50466  98.5668  82.7968 0003502 279.4328  80.6463 14.38607565 53280
TEVEL-3                 
1 50988U 22002E   22365.81241193  .00011601  00000+0  57682-3 0  9992
2 50988  97.4588  69.6289 0010432  98.0782 355.9131 15.17746522 53316
TEVEL-8                 
1 50989U 22002F   22365.82434427  .00011670  00000+0  58118-3 0  9999
2 50989  97.4600  69.6817 0010295  96.6317 356.3920 15.17690573 53319
TEVEL-5                 
1 50998U 22002Q   22365.83246196  .00012139  00000+0  59337-3 0  9999
2 50998  97.4577  69.8745 0011914  94.5426 358.5304 15.18316500 53339
TEVEL-6                 
1 50999U 22002R   22365.83154852  .00012176  00000+0  59503-3 0  9993
2 50999  97.4576  69.8697 0011744  93.6541   0.0435 15.18323883 53330
TEVEL-1                 
1 51013U 22002AF  22365.81832037  .00011619  00000+0  57817-3 0  9994
2 51013  97.4585  69.5990 0010408  98.3485 356.4835 15.17716646 53318
TEVEL-7                 
1 51062U 22002CG  22365.82648703  .00011739  00000+0  58454-3 0  9995
2 51062  97.4595  69.6630 0010327  96.8578 356.6744 15.17691848 53318
TEVEL-4                 
1 51063U 22002CH  22365.82840833  .00011733  00000+0  58455-3 0  9999
2 51063  97.4596  69.6582 0010462  97.2808 355.4265 15.17671715 53313
TEVEL-2                 
1 51069U 22002CP  22365.81435443  .00011696  00000+0  58157-3 0  9998
2 51069  97.4581  69.6104 0010312  98.0431 356.6014 15.17743839 53310
GREENCUBE               
1 53106U 22080B   22354.08419093 -.00000003  00000+0  00000+0 0  9999
2 53106  70.1702  21.9397 0008914 226.9685 182.2049  6.42557326 10248
YUZGU 9 (RS3S)          
1 53308U 98067TT  22365.60320310  .00240857  00000+0  13087-2 0  9998
2 53308  51.6336  66.5780 0005924 341.0743  19.0037 15.78729051 25506
YUZGU 7 (RS1S)          
1 53309U 98067TU  22365.37601167  .00281016  00000+0  14378-2 0  9991
2 53309  51.6323  67.2979 0006579 341.4365  18.6395 15.79939527 25427
YUZGU 11 (RS5S)         
1 53310U 98067TV  22365.79060270  .00249605  00000+0  13369-2 0  9990
2 53310  51.6349  65.5796 0006023 340.1170  19.9596 15.79022010 25516
YUZGU 12 (RS6S)         
1 53311U 98067TW  22365.58882347  .00297426  00000+0  14131-2 0  9997
2 53311  51.6306  65.7115 0006251 347.0240  13.0601 15.81510851 25514
TSIOLKOVSKY-RYAZAN 1 (*)
1 53312U 98067TX  22365.32205148  .00275002  00000+0  14437-2 0  9993
2 53312  51.6306  67.6960 0006778 339.0719  21.0004 15.79388290 25401
TSIOLKOVSKY-RYAZAN 2 (*)
1 53313U 98067TY  22365.88467308  .00236993  00000+0  12268-2 0  9999
2 53313  51.6334  64.7064 0006615 347.0236  13.0594 15.79804689 25544
YUZGU 10 (RS4S)         
1 53321U 98067TZ  22365.64983260  .00246051  00000+0  13080-2 0  9991
2 53321  51.6343  66.1372 0005998 340.9235  19.1540 15.79198399 25503
RS29S (SXC3-2110 CYCLO*)
1 53373U 22096D   22365.91347078  .00017430  00000+0  63657-3 0  9991
2 53373  97.4277 266.5334 0003124  57.7395  77.0980 15.28173077 22055
RS32S (SXC3-212 MONITO*)
1 53374U 22096E   22365.90458788  .00015422  00000+0  56417-3 0  9997
2 53374  97.4279 266.5356 0002885  56.7688  74.0558 15.28145535 22055
RS34S (SXC3-218 KUZBAS*)
1 53375U 22096F   22365.84794145  .00013785  00000+0  51248-3 0  9998
2 53375  97.4279 266.4380 0002995  50.6949  16.2983 15.27639810 22049
RS23S (SXC3-21 UTMN)    
1 53376U 22096G   22365.90789965  .00014477  00000+0  53601-3 0  9994
2 53376  97.4277 266.5091 0002798  56.0585   7.0624 15.27764204 22052
RS28S (SXC3-214 MIET-A*)
1 53377U 22096H   22365.90883044  .00013679  00000+0  50833-3 0  9995
2 53377  97.4281 266.5103 0002940  52.0425  10.6814 15.27653706 22055
RS26S (KAI-1)           
1 53378U 22096J   22365.85307600  .00012025  00000+0  45109-3 0  9993
2 53378  97.4281 266.4301 0002771  44.5266  20.3601 15.27375444 22047
RS19S (SXC3-219 ISOI)   
1 53381U 22096M   22365.86426208  .00014022  00000+0  51271-3 0  9990
2 53381  97.4269 266.5673 0002918 326.2538  99.7498 15.28184403 22054
RS21S (CUBESX-HSE-2)    
1 53383U 22096P   22365.92530272  .00014385  00000+0  52466-3 0  9995
2 53383  97.4279 266.6402 0002945 322.5826 102.7348 15.28259589 22065
RS30S (SXC3-217 SIREN)  
1 53384U 22096Q   22365.80234844  .00013212  00000+0  48580-3 0  9999
2 53384  97.4274 266.5014 0003000 323.3608 108.1670 15.28013660 22043
RS20S (GEOSCAN-EDELVEIS)
1 53385U 22096R   22365.81702994  .00018032  00000+0  63840-3 0  9998
2 53385  97.4277 266.6357 0003244 322.6697 122.3382 15.29185899 22085
RS33S (SXC3-215 VIZARD) 
1 53386U 22096S   22365.82924554  .00021246  00000+0  72968-3 0  9990
2 53386  97.4273 266.7652 0004027 319.7567 112.9141 15.30140651 22081
CAS-5A (FO-118)         
1 54684U 22167C   22365.88794755  .00007709  00000+0  48956-3 0  9993
2 54684  97.5381 140.4893 0014503 185.9519 299.2508 15.09053921  3409
CAS-10                  
1 54816U 21035C   22365.67849826  .00108811  00000+0  11586-2 0  9994
2 54816  41.4771  96.5288 0008261 288.3373  71.6568 15.62830675  2007
